2026-027A               
1 67746U 26027A   26071.93398488  .00009096  00000+0  45277-3 0  9996
2 67746  97.4902 200.9131 0010408 182.9550 177.1624 15.17778398  4358
2026-027B               
1 67747U 26027B   26071.93208227  .00009035  00000+0  44844-3 0  9990
2 67747  97.4896 200.9135 0010534 185.3593 174.7529 15.17878308  4358
2026-027C               
1 67748U 26027C   26071.99659671  .00006351  00000+0  31644-3 0  9992
2 67748  97.4909 200.9850 0010908 187.2975 172.8102 15.17863936  4366
2026-027D               
1 67749U 26027D   26071.99190352  .00010554  00000+0  51770-3 0  9991
2 67749  97.4902 200.9895 0010471 192.7082 167.3889 15.18247440  4317
2026-027E               
1 67750U 26027E   26071.99223228  .00009219  00000+0  45354-3 0  9999
2 67750  97.4913 200.9932 0009745 193.3010 166.7968 15.18187904  4367
2026-027F               
1 67751U 26027F   26071.79210972  .00003881  00000+0  19460-3 0  9998
2 67751  97.4916 200.8018 0009239 190.5872 169.5169 15.17898571  4337
2026-027G               
1 67752U 26027G   26071.95614440  .00008518  00000+0  49601-3 0  9997
2 67752  97.4911 200.8869 0012153 215.6428 144.3992 15.12201746  4356
JIELONG-3 R/B           
1 67753U 26027H   26071.93337300  .00645225  23580-5  75838-3 0  9990
2 67753  97.5106 203.2433 0200534 233.0885 125.1864 15.80005378  4499
2025-313BF              
1 67755U 25313BF  26071.96340865  .00013213  00000+0  44906-3 0  9996
2 67755  97.3995 148.6195 0007601 320.6912  39.3776 15.30564799  7028
2026-028A               
1 67756U 26028A   26071.31264726 -.00000096  00000+0  00000+0 0  9990
2 67756   0.4644 290.6263 0003541  42.5478  26.7878  1.00209192   284
JAM-E JAM 1             
1 67757U 26028B   26071.79241058  .00000155  00000+0  00000+0 0  9991
2 67757   0.4861 286.1715 0005750 134.5705  68.8815  1.00231393   159
KUIPER-00159            
1 67764U 26030A   26071.75551744  .00044699  00000+0  12608-2 0  9995
2 67764  51.8850 204.3801 0005305  51.4706 308.6755 15.35950165  5563
